{"type": "FeatureCollection", "features": [ {"type": "Feature", "properties": {"norad_id": 31985, "name": "FENGYUN 1C DEB", "group": "fengyun-1c-debris", "lat": 0.8593711861621419, "lon": -113.16754855859845, "alt_km": 855.5628308123441, "timestamp": "2025-12-11T15:53:39.827786+00:00", "meta": {"OBJECT_NAME": "FENGYUN 1C DEB", "OBJECT_ID": "1999-025CPN", "EPOCH": "2025-12-10T12:53:19.926816", "MEAN_MOTION": 14.22969288, "ECCENTRICITY": 0.0150474, "INCLINATION": 98.2197, "RA_OF_ASC_NODE": 245.9057, "ARG_OF_PERICENTER": 253.2577, "MEAN_ANOMALY": 105.2044, "EPHEMERIS_TYPE": 0, "CLASSIFICATION_TYPE": "U", "NORAD_CAT_ID": 31985, "ELEMENT_SET_NO": 999, "REV_AT_EPOCH": 95579, "BSTAR": 0.00055157, "MEAN_MOTION_DOT": 1.353e-05, "MEAN_MOTION_DDOT": 0}, "tle": {"line1": "1 31985U 99025CPN 25344.53703619  .00001353  00000+0  55157-3 0  9990", "line2": "2 31985  98.2197 245.9057 0150474 253.2577 105.2044 14.22969288955790"}}, "geometry": {"type": "Point", "coordinates": [-113.16754855859845, 0.8593711861621419]}}, {"type": "Feature", "properties": {"norad_id": 31987, "name": "FENGYUN 1C DEB", "group": "fengyun-1c-debris", "lat": 55.76142486838575, "lon": -54.32855624124636, "alt_km": 745.6168538887841, "timestamp": "2025-12-11T15:53:39.827796+00:00", "meta": {"OBJECT_NAME": "FENGYUN 1C DEB", "OBJECT_ID": "1999-025CPQ", "EPOCH": "2025-12-10T21:29:10.254048", "MEAN_MOTION": 14.44889742, "ECCENTRICITY": 0.0051373, "INCLINATION": 99.0394, "RA_OF_ASC_NODE": 318.3831, "ARG_OF_PERICENTER": 163.0724, "MEAN_ANOMALY": 226.9862, "EPHEMERIS_TYPE": 0, "CLASSIFICATION_TYPE": "U", "NORAD_CAT_ID": 31987, "ELEMENT_SET_NO": 999, "REV_AT_EPOCH": 96343, "BSTAR": 0.0014777, "MEAN_MOTION_DOT": 5.181e-05, "MEAN_MOTION_DDOT": 0}, "tle": {"line1": "1 31987U 99025CPQ 25344.89525757  .00005181  00000+0  14777-2 0  9991", "line2": "2 31987  99.0394 318.3831 0051373 163.0724 226.9862 14.44889742963434"}}, "geometry": {"type": "Point", "coordinates": [-54.32855624124636, 55.76142486838575]}}, {"type": "Feature", "properties": {"norad_id": 31989, "name": "FENGYUN 1C DEB", "group": "fengyun-1c-debris", "lat": -11.595038705687488, "lon": -135.09106955722626, "alt_km": 948.90774354926, "timestamp": "2025-12-11T15:53:39.827806+00:00", "meta": {"OBJECT_NAME": "FENGYUN 1C DEB", "OBJECT_ID": "1999-025CPS", "EPOCH": "2025-12-10T09:58:48.080928", "MEAN_MOTION": 13.93582526, "ECCENTRICITY": 0.01152878, "INCLINATION": 99.2137, "RA_OF_ASC_NODE": 45.5757, "ARG_OF_PERICENTER": 305.4945, "MEAN_ANOMALY": 117.5363, "EPHEMERIS_TYPE": 0, "CLASSIFICATION_TYPE": "U", "NORAD_CAT_ID": 31989, "ELEMENT_SET_NO": 999, "REV_AT_EPOCH": 93685, "BSTAR": 0.00081713904, "MEAN_MOTION_DOT": 1.087e-05, "MEAN_MOTION_DDOT": 0}, "tle": {"line1": "1 31989U 99025CPS 25344.41583427  .00001087  00000+0  81714-3 0  9996", "line2": "2 31989  99.2137  45.5757 0115287 305.4945 117.5363 13.93582526936851"}}, "geometry": {"type": "Point", "coordinates": [-135.09106955722626, -11.595038705687488]}}, {"type": "Feature", "properties": {"norad_id": 31990, "name": "FENGYUN 1C DEB", "group": "fengyun-1c-debris", "lat": 66.28798467972426, "lon": -13.32971767414136, "alt_km": 1129.809054293837, "timestamp": "2025-12-11T15:53:39.827820+00:00", "meta": {"OBJECT_NAME": "FENGYUN 1C DEB", "OBJECT_ID": "1999-025CPT", "EPOCH": "2025-12-09T21:41:23.356320", "MEAN_MOTION": 13.57200286, "ECCENTRICITY": 0.02600935, "INCLINATION": 99.1608, "RA_OF_ASC_NODE": 6.5848, "ARG_OF_PERICENTER": 191.8091, "MEAN_ANOMALY": 291.3802, "EPHEMERIS_TYPE": 0, "CLASSIFICATION_TYPE": "U", "NORAD_CAT_ID": 31990, "ELEMENT_SET_NO": 999, "REV_AT_EPOCH": 62733, "BSTAR": 0.00036405898, "MEAN_MOTION_DOT": 2.83e-06, "MEAN_MOTION_DDOT": 0}, "tle": {"line1": "1 31990U 99025CPT 25343.90374255  .00000283  00000+0  36406-3 0  9993", "line2": "2 31990  99.1608   6.5848 0260093 191.8091 291.3802 13.57200286627337"}}, "geometry": {"type": "Point", "coordinates": [-13.32971767414136, 66.28798467972426]}}, {"type": "Feature", "properties": {"norad_id": 31991, "name": "FENGYUN 1C DEB", "group": "fengyun-1c-debris", "lat": 72.32871684922675, "lon": 139.02437019652845, "alt_km": 852.8699901249229, "timestamp": "2025-12-11T15:53:39.827830+00:00", "meta": {"OBJECT_NAME": "FENGYUN 1C DEB", "OBJECT_ID": "1999-025CPU", "EPOCH": "2025-12-10T18:22:22.024416", "MEAN_MOTION": 13.6127752, "ECCENTRICITY": 0.02446272, "INCLINATION": 100.4864, "RA_OF_ASC_NODE": 173.6062, "ARG_OF_PERICENTER": 58.2006, "MEAN_ANOMALY": 304.2706, "EPHEMERIS_TYPE": 0, "CLASSIFICATION_TYPE": "U", "NORAD_CAT_ID": 31991, "ELEMENT_SET_NO": 999, "REV_AT_EPOCH": 62060, "BSTAR": 0.00020963887, "MEAN_MOTION_DOT": 1.45e-06, "MEAN_MOTION_DDOT": 0}, "tle": {"line1": "1 31991U 99025CPU 25344.76553269  .00000145  00000+0  20964-3 0  9992", "line2": "2 31991 100.4864 173.6062 0244627  58.2006 304.2706 13.61277520620609"}}, "geometry": {"type": "Point", "coordinates": [139.02437019652845, 72.32871684922675]}}, {"type": "Feature", "properties": {"norad_id": 31992, "name": "FENGYUN 1C DEB", "group": "fengyun-1c-debris", "lat": 64.83985649580137, "lon": 145.76197749240183, "alt_km": 1083.6348788226333, "timestamp": "2025-12-11T15:53:39.827840+00:00", "meta": {"OBJECT_NAME": "FENGYUN 1C DEB", "OBJECT_ID": "1999-025CPV", "EPOCH": "2025-11-28T04:18:18.013824", "MEAN_MOTION": 13.22945767, "ECCENTRICITY": 0.05423475, "INCLINATION": 99.1642, "RA_OF_ASC_NODE": 293.7613, "ARG_OF_PERICENTER": 64.8199, "MEAN_ANOMALY": 300.815, "EPHEMERIS_TYPE": 0, "CLASSIFICATION_TYPE": "U", "NORAD_CAT_ID": 31992, "ELEMENT_SET_NO": 999, "REV_AT_EPOCH": 53682, "BSTAR": 0.0012217074, "MEAN_MOTION_DOT": 1.091e-05, "MEAN_MOTION_DDOT": 0}, "tle": {"line1": "1 31992U 99025CPV 25332.17937516  .00001091  00000+0  12217-2 0  9998", "line2": "2 31992  99.1642 293.7613 0542347  64.8199 300.8150 13.22945767536827"}}, "geometry": {"type": "Point", "coordinates": [145.76197749240183, 64.83985649580137]}}, {"type": "Feature", "properties": {"norad_id": 31993, "name": "FENGYUN 1C DEB", "group": "fengyun-1c-debris", "lat": 54.07205189764191, "lon": 151.0230484145039, "alt_km": 841.3741595289694, "timestamp": "2025-12-11T15:53:39.827850+00:00", "meta": {"OBJECT_NAME": "FENGYUN 1C DEB", "OBJECT_ID": "1999-025CPW", "EPOCH": "2025-12-09T03:34:59.373984", "MEAN_MOTION": 13.27441178, "ECCENTRICITY": 0.04214422, "INCLINATION": 99.2418, "RA_OF_ASC_NODE": 315.7897, "ARG_OF_PERICENTER": 144.1476, "MEAN_ANOMALY": 218.8727, "EPHEMERIS_TYPE": 0, "CLASSIFICATION_TYPE": "U", "NORAD_CAT_ID": 31993, "ELEMENT_SET_NO": 999, "REV_AT_EPOCH": 88895, "BSTAR": 0.0017263058, "MEAN_MOTION_DOT": 1.223e-05, "MEAN_MOTION_DDOT": 0}, "tle": {"line1": "1 31993U 99025CPW 25343.14929831  .00001223  00000+0  17263-2 0  9992", "line2": "2 31993  99.2418 315.7897 0421442 144.1476 218.8727 13.27441178888955"}}, "geometry": {"type": "Point", "coordinates": [151.0230484145039, 54.07205189764191]}}, {"type": "Feature", "properties": {"norad_id": 31994, "name": "FENGYUN 1C DEB", "group": "fengyun-1c-debris", "lat": 56.24004420102391, "lon": -33.07166042994478, "alt_km": 904.8014731465964, "timestamp": "2025-12-11T15:53:39.827860+00:00", "meta": {"OBJECT_NAME": "FENGYUN 1C DEB", "OBJECT_ID": "1999-025CPX", "EPOCH": "2025-12-10T05:12:26.918208", "MEAN_MOTION": 13.95757222, "ECCENTRICITY": 0.0162171, "INCLINATION": 98.539, "RA_OF_ASC_NODE": 338.5771, "ARG_OF_PERICENTER": 153.0438, "MEAN_ANOMALY": 207.9266, "EPHEMERIS_TYPE": 0, "CLASSIFICATION_TYPE": "U", "NORAD_CAT_ID": 31994, "ELEMENT_SET_NO": 999, "REV_AT_EPOCH": 56761, "BSTAR": 0.00027339, "MEAN_MOTION_DOT": 3.78e-06, "MEAN_MOTION_DDOT": 0}, "tle": {"line1": "1 31994U 99025CPX 25344.21697822  .00000378  00000+0  27339-3 0  9990", "line2": "2 31994  98.5390 338.5771 0162171 153.0438 207.9266 13.95757222567618"}}, "geometry": {"type": "Point", "coordinates": [-33.07166042994478, 56.24004420102391]}}, {"type": "Feature", "properties": {"norad_id": 31997, "name": "FENGYUN 1C DEB", "group": "fengyun-1c-debris", "lat": 19.63133044535199, "lon": -146.59917610658968, "alt_km": 1123.7574458782128, "timestamp": "2025-12-11T15:53:39.827870+00:00", "meta": {"OBJECT_NAME": "FENGYUN 1C DEB", "OBJECT_ID": "1999-025CQA", "EPOCH": "2025-12-09T22:29:37.874688", "MEAN_MOTION": 13.60654901, "ECCENTRICITY": 0.02897012, "INCLINATION": 102.5101, "RA_OF_ASC_NODE": 26.6566, "ARG_OF_PERICENTER": 280.1261, "MEAN_ANOMALY": 76.7309, "EPHEMERIS_TYPE": 0, "CLASSIFICATION_TYPE": "U", "NORAD_CAT_ID": 31997, "ELEMENT_SET_NO": 999, "REV_AT_EPOCH": 61645, "BSTAR": 0.0028772897, "MEAN_MOTION_DOT": 2.799e-05, "MEAN_MOTION_DDOT": 0}, "tle": {"line1": "1 31997U 99025CQA 25343.93724392  .00002799  00000+0  28773-2 0  9995", "line2": "2 31997 102.5101  26.6566 0289701 280.1261  76.7309 13.60654901616458"}}, "geometry": {"type": "Point", "coordinates": [-146.59917610658968, 19.63133044535199]}}, {"type": "Feature", "properties": {"norad_id": 32086, "name": "FENGYUN 1C DEB", "group": "fengyun-1c-debris", "lat": 15.80071415629998, "lon": 37.96489042562663, "alt_km": 1117.6142565455275, "timestamp": "2025-12-11T15:53:39.827880+00:00", "meta": {"OBJECT_NAME": "FENGYUN 1C DEB", "OBJECT_ID": "1999-025CQC", "EPOCH": "2025-12-08T22:54:23.642784", "MEAN_MOTION": 13.68864745, "ECCENTRICITY": 0.0300639, "INCLINATION": 99.2693, "RA_OF_ASC_NODE": 38.0068, "ARG_OF_PERICENTER": 145.3801, "MEAN_ANOMALY": 216.7328, "EPHEMERIS_TYPE": 0, "CLASSIFICATION_TYPE": "U", "NORAD_CAT_ID": 32086, "ELEMENT_SET_NO": 999, "REV_AT_EPOCH": 61729, "BSTAR": 0.0024856, "MEAN_MOTION_DOT": 2.899e-05, "MEAN_MOTION_DDOT": 0}, "tle": {"line1": "1 32086U 99025CQC 25342.95444031  .00002899  00000+0  24856-2 0  9994", "line2": "2 32086  99.2693  38.0068 0300639 145.3801 216.7328 13.68864745617293"}}, "geometry": {"type": "Point", "coordinates": [37.96489042562663, 15.80071415629998]}}]}